CUBEBEL-2 (EU11S)
1 57175U 23091K   26068.90311558  .00014859  00000-0  56689-3 0  9998
2 57175  97.5170 131.3579 0011865 105.8890 254.3657 15.26706784149144
GEOSCAN-6 (RS92S6)
1 64879U 25155D   26068.91156483  .00014633  00000-0  53762-3 0  9994
2 64879  97.4466  37.2933 0008768 153.7679 206.4006 15.27985277 65592
